Store_ID,StoreName,Address,City,CountryID
S060,StoreTOA33,693 PIWZXOP Street,WLJVK,ALG
S198,StoreVCI99,094 JAGVPKS Street,LLFOH,ALG
S347,StoreXLG93,397 TZRVQKA Street,GSPBW,ALG
S361,StoreDFL12,296 JFFKTVK Street,WIHEQ,ALG
S417,StoreVYG33,563 LFSSODB Street,MHYVG,ALG
S444,StoreWTU48,240 AOODAHQ Street,EOHPE,ALG
S601,StoreYZY19,395 XHKISUR Street,ZOQOD,ALG
S622,StoreLKH25,009 YXVYPAU Street,VWAXR,ALG
S623,StoreNMY04,243 HBUGVXQ Street,HGJGR,ALG
S656,StoreOMF73,341 XTESFPG Street,IXJJM,ALG
S675,StoreLYB05,301 MPGRZQJ Street,KEQDG,ALG
S682,StoreOEL49,107 RCPJOWT Street,TANVX,ALG
S687,StoreWTE49,937 BKUWLPU Street,YSFLC,ALG
S768,StoreVHE07,661 HGNNYAD Street,MXNBR,ALG
S1003,StoreWKQ84,319 YZLDMKS Street,PWVUK,ALG
S1006,StoreNDJ26,670 DMBLYII Street,RPBEO,ALG
S1031,StoreTPN00,758 QNFREQQ Street,IJCPN,ALG
S1062,StoreVBM85,984 FYOVWHW Street,MSRIO,ALG
S1261,StoreEXS19,873 GKKAWWZ Street,YOTUX,ALG
S1299,StoreDHD50,172 BPJYRQT Street,JXACY,ALG
S094,StoreNRZ62,163 TWCGXDS Street,FJYQH,ARG
S237,StoreDJR60,552 BZZTUZE Street,ICPGT,ARG
S277,StoreOUL93,866 QYOICTO Street,BJRCF,ARG
S334,StoreHCP23,268 CAFFFYT Street,IEUPF,ARG
S405,StoreIEE13,119 KGZIUXL Street,DWWUO,ARG
S569,StoreGUM88,139 BMYSCJI Street,VWGZI,ARG
S603,StoreTDH00,968 IOHJLHE Street,QOEHX,ARG
S681,StoreULJ92,254 NCCKZQT Street,RQHNM,ARG
S741,StoreLMJ34,371 GPGQCWV Street,DMSPA,ARG
S820,StoreBZB02,128 IKKYQSP Street,JDNDX,ARG
S896,StoreOWV07,995 OANNVDA Street,GXVPB,ARG
S912,StorePJH32,143 FSFOJNM Street,OXJOO,ARG
S947,StoreIJF80,322 DJCYSFR Street,LXBGO,ARG
S1013,StoreRTW21,249 JIKCPIC Street,QEGCU,ARG
S1047,StoreTET77,882 SSAVJAH Street,OGBSE,ARG
S1054,StoreTNU93,670 PHTUUWD Street,IDDEA,ARG
S1237,StoreGSS17,325 WOGKNBD Street,LMZKC,ARG
S1264,StoreCOT33,725 HNOWUWZ Street,YOXZW,ARG
S1288,StoreQJC13,298 BVCFEKJ Street,RSXZY,ARG
S1331,StoreECB73,606 NNWOIAG Street,HABPW,ARG
S1460,StoreOQV99,234 JWVKLLG Street,BZQZS,ARG
S1481,StoreYLD27,565 KMFYDGW Street,TNNQB,ARG
S012,StoreKDN42,121 OGLRKVB Street,RLIWM,AUS
S092,StoreUUI23,721 ETNCNUW Street,DGTPL,AUS
S114,StoreEYF61,951 BJDNQZY Street,RFPFL,AUS
S133,StoreOBR44,841 IORPQGF Street,FEHOP,AUS
S203,StoreNDI55,963 ABCSLXY Street,NZZCZ,AUS
S221,StoreDDG32,200 DHYYBUO Street,GCCJP,AUS
S337,StoreIWD61,347 IDDRTHQ Street,NTFJB,AUS
S369,StoreLRH28,957 DZMLSSA Street,QGHUE,AUS
S409,StoreWHS17,648 XQYQTNQ Street,OSSSE,AUS
S411,StoreDGO51,472 ZWGMBIE Street,DJDLO,AUS
S602,StoreSHA92,330 GLXQCDY Street,UTQXY,AUS
S719,StoreLGQ26,979 GGTAAEP Street,PZMPG,AUS
S933,StoreNCJ19,130 OZNIDHH Street,CTPTD,AUS
S934,StoreIFF44,672 AQDNUVY Street,YOMQU,AUS
S992,StoreGJA56,041 SQJLYBL Street,YOUGG,AUS
S1027,StoreHKK56,386 ZVHCGAK Street,WVIKA,AUS
S1051,StoreWSX98,544 VPNLANK Street,SZAPR,AUS
S1133,StoreKWM26,319 EMTKDSK Street,PJEIB,AUS
S1201,StoreDCZ66,298 EHIBCAE Street,PRWSK,AUS
S1303,StoreXDM63,608 UIYOIDT Street,SFMEC,AUS
S1328,StoreMUO41,015 KQHFEPD Street,QVCWC,AUS
S1458,StoreRDA21,355 DRMIRTU Street,KRGOJ,AUS
S029,StoreDQS72,339 BEXTUAP Street,UDBYO,AUT
S096,StoreCJS33,721 ZJNHNRA Street,LXYUU,AUT
S285,StoreDLR41,575 VAHASYY Street,ZJGOD,AUT
S510,StoreVDA31,827 HXHCXWM Street,AOYRM,AUT
S523,StoreVFC71,887 RQVAUTM Street,DMQAO,AUT
S609,StoreYKV13,223 WJTVZXL Street,ISMWU,AUT
S688,StoreDQT97,309 ZRCWTJV Street,ODZHL,AUT
S754,StoreLGQ90,582 UETESJN Street,GDCTK,AUT
S827,StoreDVH54,101 DYZAZOO Street,IZUKZ,AUT
S1048,StoreZOC61,890 KHGXJSG Street,ODHVS,AUT
S1068,StoreVQS41,979 BOJWRXZ Street,XYERJ,AUT
S1076,StoreBIK29,495 CQKIUIB Street,MQZSR,AUT
S1101,StoreCYV41,496 NISAUVP Street,WTZBV,AUT
S1109,StoreWQL20,893 SOFKWIT Street,DXSXT,AUT
S1121,StorePAO49,926 EDPCPHC Street,DKPTS,AUT
S1143,StoreWSC35,176 DKGXSKD Street,EIEER,AUT
S1193,StoreEXR41,494 POLYXDK Street,GXISH,AUT
S1286,StoreTIS29,572 NZBRJBF Street,RTYSF,AUT
S1357,StoreXDD76,459 LVILQJP Street,UDKTV,AUT
S001,StoreSGT38,229 LAQCPMH Street,JROTS,BEL
S047,StoreODD59,735 OXPLPKX Street,IKCGQ,BEL
S154,StoreZHS72,491 SFTHMAF Street,AKXBB,BEL
S185,StoreYGX62,703 QVOHVIT Street,LTGMV,BEL
S336,StoreTQI03,142 SBQNTPI Street,WDYLK,BEL
S394,StoreKYM09,797 VOJDQBU Street,EZWLT,BEL
S439,StoreWER86,546 AMEZBDK Street,YYWOQ,BEL
S489,StoreXUI47,909 EBVKWWW Street,HKCBG,BEL
S733,StoreTAY63,462 VDFMEOI Street,QHQGL,BEL
S822,StoreKNY62,018 CDRHJYG Street,YXYPO,BEL
S831,StoreSUD77,442 PXLKVNP Street,IJEIO,BEL
S833,StoreHNZ61,503 CWBKDCM Street,RSJLZ,BEL
S834,StoreSGR49,570 WTBGCRD Street,JMSEK,BEL
S857,StoreWAP81,297 FXNITAM Street,RFAYC,BEL
S900,StoreWIU56,743 WRYCZFA Street,EXUQM,BEL
S959,StoreWKV80,677 SXNOCUZ Street,CMTZV,BEL
S1043,StoreFXF04,403 BYTKXVR Street,JOJOO,BEL
S1073,StoreLFQ73,675 AYGZBIZ Street,INUAN,BEL
S1082,StoreSUW04,143 HDDKYXZ Street,SLHIZ,BEL
S1158,StoreCOV67,145 BGVJNKQ Street,ZFOBB,BEL
S1450,StoreAVJ27,496 QSZIILN Street,ERWCZ,BEL
S036,StoreLZB99,034 IJSWPIY Street,GJEBB,BRA
S055,StoreTJQ37,706 TOQEDZS Street,XONHR,BRA
S071,StoreNUQ82,372 BUIGWFY Street,QYQWZ,BRA
S190,StoreHFA48,988 KRJNWCX Street,SUCCT,BRA
S192,StorePYG67,172 LEKYCSF Street,SNDPP,BRA
S220,StoreHGK69,058 CXJSNVI Street,UPTVS,BRA
S234,StoreIHJ13,124 UOORDQG Street,WITBX,BRA
S281,StoreNFM83,936 FRMBHOO Street,EEGAD,BRA
S301,StoreFEO33,865 AOOZJFP Street,EFKVC,BRA
S379,StoreQXO18,349 ITSWVBF Street,NXGSD,BRA
S382,StoreAKU66,148 KUDMNZW Street,NIVSJ,BRA
S806,StoreLYZ73,916 WGXWAUH Street,AZHHB,BRA
S843,StoreCJC67,339 SEYGDDH Street,KRDHI,BRA
S1152,StoreMOR05,262 MMAOBDC Street,WLOLL,BRA
S1160,StoreWZV62,944 ZOURLIK Street,CJKVP,BRA
S1245,StoreLVG37,186 OCEYOBX Street,PXLFB,BRA
S1312,StoreOND23,588 BROWJCW Street,JQMBH,BRA
S1336,StoreVVX98,872 ITYWHGU Street,ANECR,BRA
S1395,StoreHYD02,953 ROXFMGM Street,XOBJD,BRA
S1420,StoreHDE85,438 GHEHIIU Street,CCOIT,BRA
S037,StoreOGC07,766 IWCGPHB Street,PHSAT,BUL
S131,StoreELK74,458 GNSFMQJ Street,JYHFH,BUL
S205,StoreCFA49,069 BJBDHEF Street,XXSHO,BUL
S341,StoreEVS99,719 XTVTJBH Street,TTYBS,BUL
S360,StoreSCZ01,307 FZGQEAC Street,UXLHM,BUL
S472,StoreURH00,397 QNLWQQP Street,OGYBM,BUL
S580,StoreDFF42,505 KUUGFFH Street,EJAHT,BUL
S718,StoreCMJ41,420 DZTCZPA Street,XNXLN,BUL
S764,StoreJOD65,508 AQHQIVS Street,WRVIF,BUL
S817,StoreABS67,727 PAVCEYU Street,AIEWI,BUL
S825,StoreKIP82,443 TCKVLAZ Street,RPVCO,BUL
S976,StoreHXK99,417 QVLFKTS Street,BCGHB,BUL
S1093,StoreNIG60,803 CEAAIUG Street,OSJFZ,BUL
S1241,StoreDIZ01,318 STJEDDJ Street,WBZZS,BUL
S168,StoreJKK14,630 WTZYBXQ Street,LRTFQ,CAM
S290,StoreGAU99,977 LEQYPNB Street,ACJZF,CAM
S356,StoreZHZ50,015 CSYTACR Street,OOZPK,CAM
S509,StoreEMS37,041 EGKQHJU Street,PAVUZ,CAM
S520,StoreGWL04,293 MKYVQNV Street,IONBJ,CAM
S547,StoreVHM08,300 EWYFLIL Street,DUPXW,CAM
S551,StoreLFE81,761 QSNMJCO Street,VIKJS,CAM
S574,StoreTAR58,601 RQIQUNO Street,KTUKB,CAM
S641,StoreYPV66,271 DEBZKOU Street,BQIDA,CAM
S650,StoreJPU81,810 CCMMFXV Street,TXUUG,CAM
S823,StoreAKH37,477 WJMQTRD Street,XCQGF,CAM
S1072,StoreZHS34,255 IJYDIPI Street,IPMLX,CAM
S1077,StoreWMH73,647 GOMOKSU Street,YISRB,CAM
S1092,StoreKWW25,758 QNQPVQC Street,JPBZC,CAM
S1165,StoreHLR66,217 XHCWWYS Street,SBUCB,CAM
S1214,StorePVZ92,340 EBXCRCD Street,FFWNR,CAM
S1265,StoreUKC01,554 UVAMPNS Street,PHREB,CAM
S1285,StoreCEJ43,129 KITKMBL Street,VIKAS,CAM
S1422,StoreSZN54,387 NYAUCJW Street,DZJOC,CAM
S009,StoreIWT17,100 EQAGCPK Street,NREUJ,CAN
S087,StoreOPJ67,611 FKVOAWJ Street,MVCMO,CAN
S224,StoreCIF80,106 BEHASHY Street,XXERI,CAN
S263,StoreNEZ89,151 VWGXCZY Street,RGPMP,CAN
S424,StoreYQU93,600 GQWJUIR Street,SOBPQ,CAN
S519,StoreOWS19,033 PHQJDEG Street,NEWRX,CAN
S558,StoreYBW26,992 YKISEFK Street,JRODR,CAN
S586,StoreQWB72,641 AERZMVT Street,AEBJM,CAN
S689,StoreMNX79,776 QQMTVMV Street,FLRUJ,CAN
S720,StoreWYT28,267 RCBKDHU Street,ZGLJM,CAN
S727,StoreLDL86,920 SMTQGGJ Street,NAIXR,CAN
S736,StoreKKT53,460 CAMIKZK Street,DKMOE,CAN
S737,StoreWXU43,578 RKYFEAE Street,YJLWU,CAN
S756,StorePAI96,121 SUQUKAZ Street,CZLOG,CAN
S948,StoreHPX99,764 YMOOZGP Street,GUEHW,CAN
S960,StoreZSJ05,978 ASEGFBW Street,BLQIS,CAN
S1009,StoreWUO54,482 BKYDXOW Street,OGBWY,CAN
S1045,StoreCPO33,266 ABYRHGA Street,JUIRQ,CAN
S1168,StoreQLZ31,014 GYAWOBT Street,CZXXO,CAN
S1252,StoreMTQ10,152 DITWKTZ Street,KNCPJ,CAN
S1323,StoreUBD42,681 CHRHDWH Street,PRFVO,CAN
S1353,StoreBPR56,363 IMPTLWX Street,PZPEZ,CAN
S1390,StoreMXB25,273 BEZUAZO Street,OPBIX,CAN
S1397,StoreVUG46,213 YMAMDCH Street,XHZSE,CAN
S1408,StoreZPF27,412 FWFJINK Street,QONAG,CAN
S033,StoreTIP97,458 CQPCKXK Street,CBBOP,CHI
S041,StoreCEW97,165 KQLJFFE Street,IRNME,CHI
S052,StoreAXN94,393 NYSYWBT Street,FPWTU,CHI
S081,StoreICE45,762 IIWBSSK Street,TYYLG,CHI
S295,StoreEEH10,569 UDEYUZL Street,FSMTW,CHI
S476,StoreDDT70,737 HNPEEFL Street,ISEYZ,CHI
S508,StoreUEL74,484 ZEXRYFL Street,VEFGS,CHI
S597,StoreDPZ57,534 EUAKOFW Street,IQQCV,CHI
S657,StoreHDG03,010 PVLITEJ Street,VBQNJ,CHI
S701,StoreLIC28,894 LJITEFG Street,AYQAX,CHI
S711,StoreEIO21,572 UNAFPOY Street,PTUKT,CHI
S842,StoreHKV65,508 BRWADHC Street,UZELP,CHI
S907,StoreNIZ14,167 HFUHKSX Street,OCMGD,CHI
S923,StoreGNN07,024 EOWNCZH Street,NBROS,CHI
S935,StoreNAQ54,618 UXREXTD Street,YZWEL,CHI
S953,StoreLMD42,230 MZAVNQZ Street,WWQYX,CHI
S1029,StoreLJG96,526 BTWYPOK Street,EWEJZ,CHI
S1259,StoreOUA92,435 PBNJTUD Street,LCQUG,CHI
S1300,StoreBGA02,648 HHNXVYV Street,QZHDH,CHI
S1345,StoreNXX08,280 TDIYDRV Street,MTWUC,CHI
S1346,StoreJNH86,540 FFDSYSN Street,RBLHB,CHI
S1432,StoreCPC53,067 AXAKCGG Street,SKBAP,CHI
S1479,StoreIKX91,277 ZLJEQTM Street,MDVAA,CHI
S1482,StoreNTS95,115 JAAKZBB Street,MXSXN,CHI
S136,StoreNEI49,772 DOVYGWZ Street,HXFEO,CHL
S169,StoreIPN26,021 QVBTQTZ Street,LVRHD,CHL
S251,StoreJED01,482 QVASNAJ Street,PTVEZ,CHL
S275,StoreSMY98,556 XYZGQNK Street,KULNQ,CHL
S323,StoreBBB74,350 WJKIASH Street,MTCQC,CHL
S431,StoreUEL00,537 SFJZGPQ Street,JXMVZ,CHL
S456,StoreWBG81,920 CTEUZUC Street,HBWVR,CHL
S504,StoreIEV59,097 JYYXVHH Street,LTMIF,CHL
S527,StoreIKI03,755 OAGBZOH Street,QRVRM,CHL
S585,StoreDBH55,154 IQFCGTN Street,BPZYL,CHL
S606,StoreUNW85,404 PZDXSSZ Street,LKFBK,CHL
S621,StoreLHW41,216 DVTZYRI Street,EFACX,CHL
S627,StoreZOI91,974 BISDXQF Street,CZDUL,CHL
S872,StoreYMQ09,395 DJWTVMA Street,PSCBL,CHL
S910,StoreDBY13,070 HRZXYPF Street,EOWPN,CHL
S939,StoreAKO64,975 KCMKNGM Street,FQJDV,CHL
S1001,StoreFTD33,465 ZNXHPWC Street,COFED,CHL
S1010,StoreJNA27,200 SLDDDYG Street,GMHIB,CHL
S1037,StoreLIA75,934 BRYAEAY Street,AATHN,CHL
S1049,StoreYCI56,031 FPLIQFB Street,LBSGD,CHL
S1154,StoreLNB96,267 SSPXCQS Street,AKBOE,CHL
S1182,StoreJTT61,996 VAKMCDZ Street,RUJTC,CHL
S1221,StorePQF95,283 DNQQPJX Street,IPJEX,CHL
S1262,StoreMST98,962 CRSDAJN Street,LPARC,CHL
S1317,StoreEBK72,086 AYXBWOX Street,YBWWY,CHL
S1324,StoreUIQ14,637 WNEXTMA Street,MDMFQ,CHL
S1449,StoreSPV11,553 IEEHPVY Street,XSOJF,CHL
S014,StoreWIH52,261 RBVAQAU Street,CAUEL,CIV
S132,StoreXNT23,480 VZOWRWI Street,HHMGO,CIV
S159,StoreLZI26,280 HHXFZPI Street,MLIMA,CIV
S204,StoreSLK45,657 NYSAKBZ Street,JSTYM,CIV
S238,StoreSXL54,875 GFGYPOL Street,SYSVY,CIV
S239,StoreEDV58,877 SVFRBBK Street,QCLWZ,CIV
S260,StoreHTR72,199 OYFETRT Street,QFCNY,CIV
S262,StoreDXD53,597 GBQSJTA Street,USKSR,CIV
S273,StoreHAT26,901 YEGIOZV Street,YIWAG,CIV
S333,StoreUKB59,856 DMWJBVB Street,RTBVH,CIV
S335,StoreDDS10,536 PUCFHIT Street,FZDIX,CIV
S407,StoreFCN17,076 MXNSKFP Street,VWVLO,CIV
S452,StoreJFT18,806 DBQEPDC Street,YCLOF,CIV
S455,StoreZVH60,456 RMLERZY Street,DWTUF,CIV
S572,StoreMFJ34,547 TJTSWII Street,CICPO,CIV
S873,StoreDSG37,168 NQAWBZD Street,QRLHA,CIV
S944,StoreAHB62,853 CBLFFSA Street,QUUJJ,CIV
S1020,StoreTBM51,399 XYRJVCG Street,CIROH,CIV
S1036,StoreQKL62,751 ZXYTVFL Street,JSGSS,CIV
S1063,StoreEWA08,206 GRZLUUP Street,FQGXW,CIV
S1227,StoreZVN14,338 LFFVVQT Street,UZICK,CIV
S1282,StoreZVB47,155 OIELTPM Street,XXGSV,CIV
S1351,StoreRVE17,219 BXCHQJM Street,QEXRZ,CIV
S1355,StoreRMZ58,017 PGBNPSO Street,FDKBY,CIV
S1361,StoreKWW23,106 VCBIXHQ Street,JSPJG,CIV
S1367,StoreFEL98,713 ECKHDED Street,INSHE,CIV
S1384,StoreTRD64,417 MBGQVTJ Street,GGCXU,CIV
S059,StoreBVW48,419 DZOWBVM Street,IYJWQ,COL
S085,StoreTAP32,030 FQDOLIU Street,FPHJK,COL
S171,StoreXJM02,642 TTVJYTB Street,PRVKC,COL
S172,StoreOMI94,511 NRXXEZU Street,WNAIJ,COL
S358,StoreTRU23,073 LKWCDWS Street,QEHOG,COL
S447,StoreZGU39,261 ZYVNTGE Street,ZGDQV,COL
S460,StoreFFB80,810 BJLNZWM Street,HLFYY,COL
S467,StoreTZT80,735 NFJTCLR Street,JSRDJ,COL
S575,StoreGNF61,641 DEMTMHA Street,OUKOM,COL
S576,StoreUEH58,063 PCMTEXN Street,VWVQR,COL
S583,StoreQYE12,916 FDWKYFF Street,BKBXZ,COL
S592,StoreNXU47,589 FNEXFGY Street,FNUCV,COL
S785,StoreAVQ49,334 GXYPYOA Street,XTHKY,COL
S805,StoreZUX54,024 SZZUNGO Street,ABVZZ,COL
S908,StoreNQP36,287 UIHQEHF Street,IPNLX,COL
S966,StoreWSN69,157 VAEODZK Street,DTLPJ,COL
S1080,StoreMZB82,783 IWRCZMA Street,ORLLW,COL
S1167,StoreLCX17,234 LWSCUFZ Street,GETVF,COL
S1400,StoreVNU37,171 XQKKRBK Street,FRHYV,COL
S084,StoreEFB20,334 NVEOODV Street,GSYKO,COS
S200,StoreANV63,321 XHFJPXD Street,UXQNP,COS
S322,StoreLZS23,171 XASYQHD Street,QOMKW,COS
S327,StoreWJI09,583 PZZUOOM Street,CKJWG,COS
S342,StoreMGE83,148 UOGLKIR Street,KXOEU,COS
S418,StoreXBN15,733 GYBJLKW Street,WUXVB,COS
S468,StoreWDJ55,092 WMTGBMS Street,FBSJR,COS
S608,StoreJTL02,252 IOFOVHF Street,CVUSU,COS
S619,StorePNR94,048 VBDGQZH Street,ZFWYZ,COS
S662,StoreQLO38,474 JBNEWTO Street,JDIFH,COS
S714,StoreAMN01,863 SUSBHJI Street,YQDXP,COS
S795,StoreXKB05,985 LDUGMVU Street,UIOVI,COS
S866,StoreAFQ56,667 AVCFKVO Street,WFJQR,COS
S893,StoreTRQ55,050 PKXHFTS Street,JLJAI,COS
S905,StoreZOQ04,417 SBFQYAN Street,SLVOU,COS
S987,StoreDNF59,643 PUUQYDH Street,QVFBB,COS
S1022,StoreKMD99,003 HLTDZBA Street,IBPRN,COS
S1061,StoreAHR64,654 KDATMYY Street,FVVIA,COS
S1078,StoreDZJ28,428 FDSRVVX Street,KLKSH,COS
S1105,StoreETS67,458 KNQIMDL Street,XDCKL,COS
S1107,StoreMNZ80,533 UODSIXG Street,TWEVG,COS
S1146,StoreJBF62,825 OSIVCIZ Street,NKUHY,COS
S1219,StoreAKM24,310 LASWXBE Street,AGOGK,COS
S1223,StoreUAH96,213 JXFANVD Street,CVXZE,COS
S1364,StoreZRH00,151 PRSXYPW Street,PEBMX,COS
S1386,StoreTSG74,097 JENVFDN Street,IFZKA,COS
S1419,StoreIPO44,179 XCDPDMM Street,YYHLI,COS
S121,StoreXMO95,585 WSJHVAN Street,PQABG,CZE
S264,StoreMEW52,142 BSHEDHF Street,GBIYG,CZE
S283,StoreNNJ13,710 XGHLJHU Street,LIXDO,CZE
S284,StoreEDY23,860 ELUUYZR Street,TWXYC,CZE
S299,StorePYJ62,732 RWLFLLY Street,BOCES,CZE
S307,StoreWNF96,753 OWGIOPV Street,ORTLP,CZE
S471,StoreXWB23,882 OOWWDXF Street,RVANX,CZE
S522,StoreTOJ17,614 ATYOXDP Street,ZLIIP,CZE
S634,StoreUXP29,197 SSZGSIE Street,XJVHK,CZE
S642,StorePHX03,121 EJILEMW Street,UEPVA,CZE
S726,StoreVRX86,588 HSVCMSB Street,BLRTE,CZE
S740,StoreRSA95,993 PBVIIVV Street,SDWRT,CZE
S751,StoreUSE44,755 BAAUBXC Street,WSNQM,CZE
S840,StoreWHY61,737 LTMGIFB Street,XMMIF,CZE
S880,StoreHHW27,438 RJOONSL Street,IZUNU,CZE
S888,StoreBXC97,127 YBVRGZP Street,ABQRN,CZE
S941,StoreFXA86,099 ZKBTHSM Street,TOYGF,CZE
S980,StoreKDU96,293 QRYXVRE Street,ZBSUJ,CZE
S1120,StoreSCO70,740 HOASDTA Street,LITDN,CZE
S1124,StoreUOA80,629 FWSOYLG Street,XVQOQ,CZE
S1159,StoreNFX90,708 PTBSWFV Street,YWLVW,CZE
S1195,StoreMFG73,113 ODMCDGG Street,IDPRN,CZE
S1249,StoreNQS27,799 KFUKYNY Street,ZGIPR,CZE
S1263,StoreQBQ36,455 FPJYMGJ Street,WDGGC,CZE
S1368,StoreQGA45,724 OJTJYHE Street,TSGDH,CZE
S1392,StoreMSH17,813 LRNPBDF Street,SKGNF,CZE
S1393,StoreJUQ51,505 DARQUJT Street,IBPNZ,CZE
S1417,StoreWUQ45,061 RWIRAXZ Street,DIONO,CZE
S1437,StorePFO66,549 RCHALED Street,EEUZP,CZE
S1440,StoreAWX28,740 FEQOHDB Street,BEMTX,CZE
S1455,StoreZSW49,323 LRAKASB Street,BSJXG,CZE
S097,StoreAUY05,850 IXIWZGS Street,BTCDI,DEN
S102,StoreOSL14,536 WIOZAGF Street,ECOPF,DEN
S225,StoreTRC84,186 IYVJKKH Street,GJCWM,DEN
S372,StoreCOO57,874 IVNPGWS Street,YCCVJ,DEN
S530,StoreAJR05,826 HVMHBRV Street,TIGHR,DEN
S571,StoreWGT70,305 VRSVKGQ Street,XQTYV,DEN
S772,StorePAV92,575 MLOFLWD Street,XFSOH,DEN
S789,StoreUBP77,267 ZOAZMQI Street,CVVCT,DEN
S814,StoreAKO71,069 TGOMPYV Street,FYPUF,DEN
S881,StoreLRS87,571 KSPYEJD Street,ORRDS,DEN
S904,StoreEKH60,183 TEPOKZP Street,VLVBV,DEN
S906,StoreAZM19,762 XAJMWSH Street,HKWLP,DEN
S917,StorePAQ60,112 DIKGRRW Street,XQDLT,DEN
S931,StoreEAS30,800 NOVXHUF Street,LZRAJ,DEN
S1044,StoreTDS89,305 AJOSJPJ Street,JPSOQ,DEN
S1149,StoreLLQ34,500 YXCFYXY Street,XCEAW,DEN
S1170,StoreZBU02,080 NHSXYVQ Street,USFZM,DEN
S1235,StoreJYO41,159 VCOACJG Street,NMMZW,DEN
S1273,StoreSMC36,482 IFRAACC Street,CQVHL,DEN
S1467,StoreEYF00,341 YPVBZNN Street,RVYHO,DEN
S160,StoreVUQ16,019 KHPSDTR Street,FKZYC,DOM
S269,StoreZMP66,092 ISQPIAU Street,MQUHY,DOM
S326,StoreBTR68,393 QTLBGFC Street,LLMSY,DOM
S434,StoreBZR44,562 PUXMLAE Street,EXJPX,DOM
S559,StoreXMG62,842 GAGQVRY Street,ANUQP,DOM
S628,StoreVJT80,677 CXUQCRT Street,GUWAU,DOM
S647,StoreVCF84,237 GEJNSGO Street,WFOSG,DOM
S724,StoreQJY80,796 PFJLARA Street,LHVRE,DOM
S839,StoreKTJ03,700 NQXQYZO Street,KRBDZ,DOM
S858,StoreGSR94,532 PLZZXAP Street,AMTDY,DOM
S867,StoreXFV31,591 CZVSFTC Street,LGHMG,DOM
S913,StoreIGK63,360 GVQTEUL Street,AVQJB,DOM
S938,StoreSBU28,799 DVFQHYP Street,POLGM,DOM
S975,StoreHEC35,732 GYEBKOF Street,MOKGL,DOM
S1005,StoreKFV80,661 OOJDGTV Street,XSMGM,DOM
S1024,StoreHUZ71,147 ZIUMLNC Street,DTQYQ,DOM
S1095,StoreKMF78,300 GRRQZYF Street,YVNUA,DOM
S1110,StoreVOH48,807 TSELRDH Street,SSEKA,DOM
S1135,StorePLA25,626 RJNUPLY Street,IPXBX,DOM
S1244,StoreTNM85,850 HTBOPWQ Street,UAFXM,DOM
S1269,StoreQGT06,515 WTVMPMF Street,BBXPH,DOM
S1371,StoreRDW67,197 LXEXWLK Street,XHWCX,DOM
S063,StoreJOD68,932 PNCJUUT Street,VVPXG,ECU
S120,StoreAFC33,119 ABVOUAU Street,RVSDQ,ECU
S130,StorePVG20,771 UIMFTWL Street,VBJWW,ECU
S267,StoreNLQ75,062 ACEUECZ Street,XRJZM,ECU
S328,StoreITQ49,789 FISNVZS Street,FXIGV,ECU
S329,StoreUXH36,272 BCBZFZI Street,IVPXG,ECU
S340,StoreZEF14,888 UIPHQQN Street,UGCTC,ECU
S384,StoreLWA60,874 ZFAMAQX Street,AVYKW,ECU
S415,StoreBBR70,282 WVKXIZS Street,ZYZXC,ECU
S550,StoreBCY23,002 FMYWAQW Street,FBQCW,ECU
S578,StoreGXP96,035 DYBLCGT Street,YOYIM,ECU
S663,StorePCO66,473 JKMZKUL Street,WVMBF,ECU
S670,StoreOFZ08,935 VRRRNJG Street,MPUTG,ECU
S709,StoreQKX83,178 QJQVRUV Street,ZXVOI,ECU
S801,StoreDPZ01,170 LMQSTTK Street,KLTNC,ECU
S829,StoreTKI38,224 QKFMOBT Street,VAUMU,ECU
S877,StoreLUT91,468 TWENICR Street,VAREK,ECU
S1220,StoreASJ80,524 ZSFXWXB Street,PFODE,ECU
S1225,StoreVWF61,437 FMETTFI Street,AYUWK,ECU
S1304,StoreMHB26,505 QWJECTU Street,XHNOT,ECU
S1332,StoreYMX57,706 DAFMZAP Street,RIWQK,ECU
S1378,StoreXXA60,183 APLLGVM Street,BUSDM,ECU
S1396,StoreIQW68,816 LZHVVIE Street,DJMWS,ECU
S1424,StoreVUQ05,779 FAWPKRF Street,GJYAX,ECU
S1456,StoreCFF03,594 EVJNFJP Street,QWDSQ,ECU
S1463,StoreKUP37,784 OSGOSQM Street,TNDCP,ECU
S1471,StoreXYJ22,482 VNRELBJ Street,WOWLY,ECU
S1492,StoreOOI92,925 HPZSPON Street,TNWPY,ECU
S030,StoreAGM65,959 POLCQEF Street,MASBQ,EGY
S070,StoreKJC65,370 GQZTTST Street,RWTYB,EGY
S088,StoreGGV02,452 ANUZWYU Street,ZTSUI,EGY
S104,StoreLTP50,786 WYADOUN Street,DTQKA,EGY
S191,StoreMAA98,892 QTHJXPI Street,CZXXO,EGY
S210,StoreZFJ13,785 RULEJDG Street,ZXXUB,EGY
S235,StoreLZG00,025 SXSBWJJ Street,KWRWR,EGY
S259,StoreZMB67,525 OWUSNWK Street,LKJYJ,EGY
S331,StoreVJH18,735 MQAYACK Street,HDOTZ,EGY
S402,StoreQQP83,413 ZSZIQCJ Street,BKJCS,EGY
S421,StoreBRN22,231 NSDUCMV Street,PZMFK,EGY
S549,StoreEUE88,892 ZBHXVDW Street,UWTSN,EGY
S581,StoreMLL43,856 ENUPZST Street,EVEZC,EGY
S624,StoreYVB51,228 LDTCAFW Street,YGOOU,EGY
S752,StoreYZZ17,750 VDBSWGG Street,SZNAP,EGY
S862,StoreXKE15,136 SJQGFKB Street,BWCWO,EGY
S886,StoreNSZ02,173 OGBMZCA Street,TXFED,EGY
S986,StoreTNN33,268 DTVXKJZ Street,PIFOF,EGY
S1178,StoreAVG46,744 WIAGNYN Street,RTWYB,EGY
S1234,StoreKXN22,908 OFNQNVD Street,FISEV,EGY
S1268,StoreHFF33,353 HQGKOIW Street,DYKAS,EGY
S1275,StoreVYP74,796 TBDXHQB Street,VGRSQ,EGY
S1306,StoreVGO57,895 FPQGOTO Street,XZNXZ,EGY
S1387,StoreWPQ71,972 UAUKJBA Street,XWDEV,EGY
S1475,StoreUKI58,005 BPPNBCE Street,IGRSZ,EGY
S1497,StoreMAG54,526 UYSCTXQ Street,PBKQT,EGY
S187,StoreXDV78,046 FVQXYTN Street,DBLHZ,ETH
S438,StoreIFF06,317 XJCOSJP Street,OIVEY,ETH
S475,StoreSLF90,058 CLZWWQY Street,KQLBL,ETH
S502,StoreJFX67,852 KPNUDGC Street,ENSPX,ETH
S515,StoreRCN42,486 ADXYQFY Street,FWNQQ,ETH
S826,StoreQOQ24,209 KBTBOJQ Street,QCFGC,ETH
S1004,StoreZKN19,790 EEXVCJK Street,PBOZR,ETH
S1007,StoreLPZ37,847 XYTQPYB Street,AAIIU,ETH
S1141,StoreSPM95,947 LPMGMQV Street,UISCQ,ETH
S038,StoreIZO67,636 XWBEDCH Street,QGCDM,FIN
S099,StoreEYE62,159 YNSDFIY Street,ZXYJK,FIN
S261,StoreIBT33,141 INIFMLP Street,JVOUN,FIN
S324,StoreSHW98,664 XYGDSTN Street,ANEVE,FIN
S352,StoreCXF71,713 VXBOYHL Street,FGRQP,FIN
S383,StoreZPT68,499 YHZZSCA Street,UJAUF,FIN
S435,StoreJLE09,422 GSRIZAU Street,TTTAB,FIN
S446,StoreGLM72,024 UNBMWWH Street,MSEEC,FIN
S464,StoreMHS64,766 VARBWZM Street,ZKBID,FIN
S490,StoreYET07,148 UTSFOCZ Street,EIKEM,FIN
S505,StoreIAI76,469 LNJERBB Street,OXOXZ,FIN
S625,StoreZMP63,355 ALFTTWY Street,KNXUI,FIN
S685,StoreAZQ77,570 HSMPBVX Street,YDDDX,FIN
S803,StoreXXV17,832 XATJJSL Street,BWBMO,FIN
S854,StoreQNR33,531 ZXKWLTT Street,OAQEB,FIN
S929,StoreECW84,223 ZEWCAJA Street,GOOMP,FIN
S1087,StoreQIC12,898 YARJFRX Street,OUQDT,FIN
S1123,StoreWEJ03,056 DWAGNJV Street,YCUHV,FIN
S1130,StoreLQN80,018 OZOKQND Street,LZJME,FIN
S1181,StoreNSG93,665 AJFKIBF Street,FTWPB,FIN
S1190,StoreUIW44,433 VCLFOBA Street,LCYAW,FIN
S1199,StoreFGZ22,662 AQILGIC Street,NWRWH,FIN
S1233,StoreWDH57,953 ZKDAAIP Street,QWSKZ,FIN
S017,StoreVPS53,686 IKVJXSI Street,BZXJC,FRA
S109,StoreIIR78,670 INFQLBI Street,CDWAL,FRA
S139,StoreWZB22,802 NMARVUT Street,ZMWYX,FRA
S144,StorePWJ88,282 CBQHNSD Street,VGIAW,FRA
S146,StoreABG33,878 UVOFUZI Street,FPWFW,FRA
S311,StoreNAI92,141 EXNZDZW Street,WMBGK,FRA
S495,StoreVFN31,605 WRSRVDE Street,FSNWG,FRA
S648,StoreQLS98,836 RDKEDUG Street,WONKM,FRA
S788,StoreDWG38,050 IBFSSLK Street,ZKJJL,FRA
S969,StoreGQX18,269 OACGOBB Street,TYBPL,FRA
S1012,StoreXUR83,781 YPOGEIP Street,CWELZ,FRA
S1295,StoreKHQ46,656 AXGMXPJ Street,NHJNF,FRA
S1309,StoreQYV38,383 GIEDVNQ Street,PSZGO,FRA
S1375,StoreKRW99,441 SUQKKXN Street,EYIKB,FRA
S1381,StoreWTD03,016 PHXWATB Street,BNRRS,FRA
S1425,StoreLDB92,002 FXIZYWM Street,LQIFJ,FRA
S1429,StoreXDR93,961 TTATOMO Street,CILZI,FRA
S049,StoreLGV78,108 VXXOEVD Street,YFLRS,GER
S076,StoreUMZ36,299 GSDUKXE Street,ONODD,GER
S117,StoreEEI55,032 TNASIRD Street,TYGKG,GER
S162,StorePGU76,159 GQYSHJM Street,DMOBH,GER
S280,StoreZLM11,244 LABMOIJ Street,UOUNH,GER
S316,StoreHWM34,872 MBXSNOF Street,WRQAX,GER
S339,StoreEZM59,241 PMNCAJJ Street,OZDIB,GER
S448,StoreQBS42,866 GZMKJKX Street,YKGVZ,GER
S470,StoreTSW94,455 ZSKWFJP Street,CVOKD,GER
S492,StoreKHX13,364 VIROVES Street,AEANO,GER
S511,StoreUQM30,600 VPDNDLE Street,KDXJS,GER
S577,StoreEGG98,639 GYEMTTQ Street,DMTEL,GER
S638,StoreAZI34,857 YAGFNYU Street,NIMYP,GER
S669,StoreLCV76,825 ZJWKRQE Street,MMXWK,GER
S830,StoreXBO99,084 XVGSSVY Street,JJLNW,GER
S869,StoreRBW19,729 RLISIGI Street,PBTVD,GER
S949,StoreLVV84,339 WOEGWUA Street,ZONRQ,GER
S1064,StoreUSS26,576 PTBGXMV Street,JLNPF,GER